{
  "type": "FeatureCollection",
  "features": [
    {
      "type": "Feature",
      "properties": { "name": "隅田川クルーズ" },
      "geometry": {
        "type": "LineString",
        "coordinates": [
          [139.796700, 35.714800],
          [139.800500, 35.710000],
          [139.801000, 35.703100],
          [139.796100, 35.696700],
          [139.786800, 35.691800]
        ]
      }
    },
    {
      "type": "Feature",
      "properties": { "name": "上野公園" },
      "geometry": {
        "type": "Polygon",
        "coordinates": [
          [
            [139.770200, 35.715600],
            [139.777300, 35.718300],
            [139.778300, 35.713500],
            [139.774100, 35.710000],
            [139.770200, 35.715600]
          ]
        ]
      }
    },
    {
      "type": "Feature",
      "properties": { "name": "秋葉原" },
      "geometry": {
        "type": "Point",
        "coordinates": [139.773100, 35.698400]
      }
    }
  ]
}
